CTC2_L_00315016-03
1 19219U 24648JQ  26037.47793981  .00000000  00000+0  00000-0 0  9991
2 19219  55.0000 180.0000 0000000   0.0000   0.0000 13.69880581    13
CTC2_L_00315016-04
1 19220U 24118KV  26037.47793981  .00000000  00000+0  00000-0 0  9995
2 19220  55.0000 180.0000 0000000   0.0000  90.0000 13.69880581    14
CTC2_L_00315017-01
1 19221U 23915PV  26037.47793981  .00000000  00000+0  00000-0 0  9990
2 19221  55.0000 192.0000 0000000   0.0000 192.0000 13.69880581    11
CTC2_L_00315017-02
1 19222U 26187SK  26037.47793981  .00000000  00000+0  00000-0 0  9995
2 19222  55.0000 192.0000 0000000   0.0000 282.0000 13.69880581    12
CTC2_L_00315017-03
1 19223U 23528JD  26037.47793981  .00000000  00000+0  00000-0 0  9992
2 19223  55.0000 192.0000 0000000   0.0000  12.0000 13.69880581    14
CTC2_L_00315017-04
1 19224U 25311YQ  26037.47793981  .00000000  00000+0  00000-0 0  9995
2 19224  55.0000 192.0000 0000000   0.0000 102.0000 13.69880581    15
CTC2_L_00315018-01
1 19225U 25703KP  26037.47793981  .00000000  00000+0  00000-0 0  9991
2 19225  55.0000 204.0000 0000000   0.0000 204.0000 13.69880581    13
CTC2_L_00315018-02
1 19226U 22452YE  26037.47793981  .00000000  00000+0  00000-0 0  9990
2 19226  55.0000 204.0000 0000000   0.0000 294.0000 13.69880581    13
CTC2_L_00315018-03
1 19227U 25434VF  26037.47793981  .00000000  00000+0  00000-0 0  9994
2 19227  55.0000 204.0000 0000000   0.0000  24.0000 13.69880581    15
CTC2_L_00315018-04
1 19228U 26923AE  26037.47793981  .00000000  00000+0  00000-0 0  9999
2 19228  55.0000 204.0000 0000000   0.0000 114.0000 13.69880581    16
CTC2_L_00315019-01
1 19229U 24515KE  26037.47793981  .00000000  00000+0  00000-0 0  9995
2 19229  55.0000 216.0000 0000000   0.0000 216.0000 13.69880581    13
CTC2_L_00315019-02
1 19230U 24051NY  26037.47793981  .00000000  00000+0  00000-0 0  9992
2 19230  55.0000 216.0000 0000000   0.0000 306.0000 13.69880581    15
CTC2_L_00315019-03
1 19231U 26243YM  26037.47793981  .00000000  00000+0  00000-0 0  9998
2 19231  55.0000 216.0000 0000000   0.0000  36.0000 13.69880581    16
CTC2_L_00315019-04
1 19232U 26465EW  26037.47793981  .00000000  00000+0  00000-0 0  9995
2 19232  55.0000 216.0000 0000000   0.0000 126.0000 13.69880581    17
CTC2_L_00315020-01
1 19233U 25771YI  26037.47793981  .00000000  00000+0  00000-0 0  9995
2 19233  55.0000 228.0000 0000000   0.0000 228.0000 13.69880581    14
CTC2_L_00315020-02
1 19234U 26830XR  26037.47793981  .00000000  00000+0  00000-0 0  9993
2 19234  55.0000 228.0000 0000000   0.0000 318.0000 13.69880581    15
CTC2_L_00315020-03
1 19235U 26723UE  26037.47793981  .00000000  00000+0  00000-0 0  9995
2 19235  55.0000 228.0000 0000000   0.0000  48.0000 13.69880581    16
CTC2_L_00315020-04
1 19236U 24889BE  26037.47793981  .00000000  00000+0  00000-0 0  9997
2 19236  55.0000 228.0000 0000000   0.0000 138.0000 13.69880581    17
CTC2_L_00315021-01
1 19237U 22384CV  26037.47793981  .00000000  00000+0  00000-0 0  9996
2 19237  55.0000 240.0000 0000000   0.0000 240.0000 13.69880581    16
CTC2_L_00315021-02
1 19238U 25035VV  26037.47793981  .00000000  00000+0  00000-0 0  9993
2 19238  55.0000 240.0000 0000000   0.0000 330.0000 13.69880581    17
CTC2_L_00315021-03
1 19239U 23667PL  26037.47793981  .00000000  00000+0  00000-0 0  9993
2 19239  55.0000 240.0000 0000000   0.0000  60.0000 13.69880581    18
CTC2_L_00315021-04
1 19240U 22552RM  26037.47793981  .00000000  00000+0  00000-0 0  9997
2 19240  55.0000 240.0000 0000000   0.0000 150.0000 13.69880581    10
CTC2_L_00315022-01
1 19241U 24082TR  26037.47793981  .00000000  00000+0  00000-0 0  9998
2 19241  55.0000 252.0000 0000000   0.0000 252.0000 13.69880581    17
CTC2_L_00315022-02
1 19242U 24478QT  26037.47793981  .00000000  00000+0  00000-0 0  9998
2 19242  55.0000 252.0000 0000000   0.0000 342.0000 13.69880581    18
CTC2_L_00315022-03
1 19243U 22875GR  26037.47793981  .00000000  00000+0  00000-0 0  9998
2 19243  55.0000 252.0000 0000000   0.0000  72.0000 13.69880581    19
CTC2_L_00315022-04
1 19244U 25989YH  26037.47793981  .00000000  00000+0  00000-0 0  9998
2 19244  55.0000 252.0000 0000000   0.0000 162.0000 13.69880581    10
CTC2_L_00315023-01
1 19245U 25935OL  26037.47793981  .00000000  00000+0  00000-0 0  9990
2 19245  55.0000 264.0000 0000000   0.0000 264.0000 13.69880581    17
CTC2_L_00315023-02
1 19246U 26014AR  26037.47793981  .00000000  00000+0  00000-0 0  9990
2 19246  55.0000 264.0000 0000000   0.0000 354.0000 13.69880581    18
CTC2_L_00315023-03
1 19247U 26869PE  26037.47793981  .00000000  00000+0  00000-0 0  9999
2 19247  55.0000 264.0000 0000000   0.0000  84.0000 13.69880581    19
CTC2_L_00315023-04
1 19248U 23853AS  26037.47793981  .00000000  00000+0  00000-0 0  9990
2 19248  55.0000 264.0000 0000000   0.0000 174.0000 13.69880581    10
CTC2_L_00315024-01
1 19249U 23423IY  26037.47793981  .00000000  00000+0  00000-0 0  9994
2 19249  55.0000 276.0000 0000000   0.0000 276.0000 13.69880581    17
CTC2_L_00315024-02
1 19250U 26988AJ  26037.47793981  .00000000  00000+0  00000-0 0  9995
2 19250  55.0000 276.0000 0000000   0.0000   6.0000 13.69880581    10
CTC2_L_00315024-03
1 19251U 22255XN  26037.47793981  .00000000  00000+0  00000-0 0  9999
2 19251  55.0000 276.0000 0000000   0.0000  96.0000 13.69880581    10
CTC2_L_00315024-04
1 19252U 22830XN  26037.47793981  .00000000  00000+0  00000-0 0  9999
2 19252  55.0000 276.0000 0000000   0.0000 186.0000 13.69880581    11
CTC2_L_00315025-01
1 19253U 24827AX  26037.47793981  .00000000  00000+0  00000-0 0  9998
2 19253  55.0000 288.0000 0000000   0.0000 288.0000 13.69880581    18
CTC2_L_00315025-02
1 19254U 22204FS  26037.47793981  .00000000  00000+0  00000-0 0  9996
2 19254  55.0000 288.0000 0000000   0.0000  18.0000 13.69880581    10
CTC2_L_00315025-03
1 19255U 26580FV  26037.47793981  .00000000  00000+0  00000-0 0  9998
2 19255  55.0000 288.0000 0000000   0.0000 108.0000 13.69880581    11
CTC2_L_00315025-04
1 19256U 25193PJ  26037.47793981  .00000000  00000+0  00000-0 0  9998
2 19256  55.0000 288.0000 0000000   0.0000 198.0000 13.69880581    11
CTC2_L_00315026-01
1 19257U 25987DC  26037.47793981  .00000000  00000+0  00000-0 0  9990
2 19257  55.0000 300.0000 0000000   0.0000 300.0000 13.69880581    12
CTC2_L_00315026-02
1 19258U 24524AV  26037.47793981  .00000000  00000+0  00000-0 0  9997
2 19258  55.0000 300.0000 0000000   0.0000  30.0000 13.69880581    13
CTC2_L_00315026-03
1 19259U 24181JK  26037.47793981  .00000000  00000+0  00000-0 0  9997
2 19259  55.0000 300.0000 0000000   0.0000 120.0000 13.69880581    14
CTC2_L_00315026-04
1 19260U 23990DS  26037.47793981  .00000000  00000+0  00000-0 0  9996
2 19260  55.0000 300.0000 0000000   0.0000 210.0000 13.69880581    16
CTC2_L_00315027-01
1 19261U 24314LM  26037.47793981  .00000000  00000+0  00000-0 0  9998
2 19261  55.0000 312.0000 0000000   0.0000 312.0000 13.69880581    13
CTC2_L_00315027-02
1 19262U 24298UU  26037.47793981  .00000000  00000+0  00000-0 0  9990
2 19262  55.0000 312.0000 0000000   0.0000  42.0000 13.69880581    14
CTC2_L_00315027-03
1 19263U 23071EM  26037.47793981  .00000000  00000+0  00000-0 0  9999
2 19263  55.0000 312.0000 0000000   0.0000 132.0000 13.69880581    15
CTC2_L_00315027-04
1 19264U 24007BV  26037.47793981  .00000000  00000+0  00000-0 0  9990
2 19264  55.0000 312.0000 0000000   0.0000 222.0000 13.69880581    16
CTC2_L_00315028-01
1 19265U 24886WD  26037.47793981  .00000000  00000+0  00000-0 0  9996
2 19265  55.0000 324.0000 0000000   0.0000 324.0000 13.69880581    13
CTC2_L_00315028-02
1 19266U 26066GD  26037.47793981  .00000000  00000+0  00000-0 0  9999
2 19266  55.0000 324.0000 0000000   0.0000  54.0000 13.69880581    14
CTC2_L_00315028-03
1 19267U 23702JU  26037.47793981  .00000000  00000+0  00000-0 0  9994
2 19267  55.0000 324.0000 0000000   0.0000 144.0000 13.69880581    15
CTC2_L_00315028-04
1 19268U 23490DV  26037.47793981  .00000000  00000+0  00000-0 0  9999
2 19268  55.0000 324.0000 0000000   0.0000 234.0000 13.69880581    16
CTC2_L_00315029-01
1 19269U 24037WR  26037.47793981  .00000000  00000+0  00000-0 0  9998
2 19269  55.0000 336.0000 0000000   0.0000 336.0000 13.69880581    13
CTC2_L_00315029-02
1 19270U 26405CZ  26037.47793981  .00000000  00000+0  00000-0 0  9991
2 19270  55.0000 336.0000 0000000   0.0000  66.0000 13.69880581    15
CTC2_L_00315029-03
1 19271U 25456AE  26037.47793981  .00000000  00000+0  00000-0 0  9997
2 19271  55.0000 336.0000 0000000   0.0000 156.0000 13.69880581    16
CTC2_L_00315029-04
1 19272U 23663U   26037.47793981  .00000000  00000+0  00000-0 0  9996
2 19272  55.0000 336.0000 0000000   0.0000 246.0000 13.69880581    17
CTC2_L_00315030-01
1 19273U 25233UV  26037.47793981  .00000000  00000+0  00000-0 0  9992
2 19273  55.0000 348.0000 0000000   0.0000 348.0000 13.69880581    14
CTC2_L_00315030-02
1 19274U 22011WV  26037.47793981  .00000000  00000+0  00000-0 0  9994
2 19274  55.0000 348.0000 0000000   0.0000  78.0000 13.69880581    15
CTC2_L_00315030-03
1 19275U 26963KO  26037.47793981  .00000000  00000+0  00000-0 0  9995
2 19275  55.0000 348.0000 0000000   0.0000 168.0000 13.69880581    16
CTC2_L_00315030-04
1 19276U 26180CQ  26037.47793981  .00000000  00000+0  00000-0 0  9997
2 19276  55.0000 348.0000 0000000   0.0000 258.0000 13.69880581    17
